CORVUS BC1              
1 42847U 17042Y   18180.79313286  .00000184  00000-0  23476-4 0  9995
2 42847  97.5965  83.2629 0010042 145.8278 214.3589 14.91924938 52245
SILU-1 (SILKROAD 1)     
1 42903U 17021F   18181.11260355  .00021840  00000-0  16212-3 0  9991
2 42903  42.7774 249.8915 0012234  26.7063  52.8699 15.72314192 51960
MIRATA                  
1 43015U 17073C   18180.81495996  .00000614  00000-0  54529-4 0  9990
2 43015  97.7045 111.3039 0256796 230.2448 127.5889 14.78163806 33003
MAKERSAT 0              
1 43016U 17073D   18180.79970969  .00000369  00000-0  34992-4 0  9995
2 43016  97.7074 111.4103 0258190 230.3344 127.4838 14.78168559 32995
ASTERIA                 
1 43020U 98067NH  18180.83296736  .00011855  00000-0  15191-3 0  9991
2 43020  51.6422 310.8100 0002112 215.2346 144.8508 15.59639035 34466
DELLINGR (RBLE)         
1 43021U 98067NJ  18180.83361431  .00006049  00000-0  86548-4 0  9991
2 43021  51.6402 312.2866 0002114 202.4218 157.6682 15.57728263 34441
OSIRIS-3U               
1 43027U 98067NL  18180.86086867  .00024046  00000-0  24345-3 0  9990
2 43027  51.6383 306.4522 0002683 217.5442 142.5366 15.65138047 34408
AEROCUBE 7B             
1 43042U 17071F   18180.91314665  .00003169  00000-0  91064-4 0  9995
2 43042  51.6400 339.5167 0004627 314.0881  45.9722 15.38943734 31560
AEROCUBE 7C             
1 43043U 17071G   18180.91312537  .00003349  00000-0  95638-4 0  9993
2 43043  51.6400 339.5207 0004690 316.6252  43.4363 15.38949334 31539
CHEFSAT                 
1 43044U 17071H   18180.84964048  .00005244  00000-0  13963-3 0  9992
2 43044  51.6405 339.1181 0004625 315.4393  44.6219 15.39896095 31532
ASGARDIA 1              
1 43049U 17071N   18180.89278511  .00002322  00000-0  69145-4 0  9993
2 43049  51.6402 339.3915 0002322 343.6569  16.4340 15.39079766 31531
ISARA                   
1 43050U 17071P   18180.98260432  .00004790  00000-0  12908-3 0  9993
2 43050  51.6399 338.5021 0002131 338.1149  21.9744 15.39734202 31541
FAUNA                   
1 43052U 17071R   18180.75033053  .00002215  00000-0  66129-4 0  9992
2 43052  51.6402 339.9483 0002154 339.3073  20.7824 15.39215790 31507
CORVUS BC3              
1 43118U 18004H   18181.15725034  .00000818  00000-0  38627-4 0  9993
2 43118  97.5322 243.7726 0011973  55.3645 304.8718 15.22273986 25684
MICROMAS-2A             
1 43131U 18004W   18180.91544845  .00001791  00000-0  79495-4 0  9999
2 43131  97.5328 243.6477 0011213  59.7902 300.4443 15.22855206 25653
GOMX4-B                 
1 43196U 18015E   18181.21349506 -.00000071  00000-0  00000+0 0  9995
2 43196  97.3546 309.8521 0020740 106.4185 254.0702 15.23667264 22517
GOMX4-A                 
1 43197U 18015F   18181.02941388  .00000626  00000-0  28896-4 0  9994
2 43197  97.3486 309.6995 0020940 111.0070 339.4428 15.23675312 22494
UBAKUSAT                
1 43466U 98067NP  18180.82726278  .00009144  00000-0  13602-3 0  9996
2 43466  51.6406 315.2386 0000387 145.6078 214.4939 15.55934659  7678
1KUNS-PF                
1 43467U 98067NQ  18180.95649026  .00007053  00000-0  10710-3 0  9990
2 43467  51.6409 314.6030 0002662 173.0552 187.0476 15.55788042  7697
BATSU-CS1 (IRAZU)       
1 43468U 98067NR  18180.82378089  .00010666  00000-0  15637-3 0  9992
2 43468  51.6406 315.2156 0000288 129.4635 230.6382 15.56128729107659
